SL-3 R/B                
1 19046U 88032B   17279.43322162 -.00000383  00000-0 -23986-4 0  9998
2 19046  97.5167 323.0687 0036807 318.1274  41.7137 15.02296799589348
SL-16 R/B               
1 19120U 88039B   17279.45803402  .00000125  00000-0  82333-4 0  9994
2 19120  71.0131  89.8126 0021505  11.7424 348.4198 14.19174019522175
COSMOS 1953             
1 19210U 88050A   17278.97173041  .00001197  00000-0  81451-4 0  9992
2 19210  82.5146 285.9667 0012041 240.3040 119.6989 15.05376844573376
SL-8 R/B                
1 19257U 88053B   17279.43761639  .00000056  00000-0  27561-4 0  9999
2 19257  74.0514  12.0170 0021348 237.3470 202.0150 14.37375097534752
COSMOS 1975             
1 19573U 88093A   17279.42875234  .00001276  00000-0  89553-4 0  9994
2 19573  82.5199 237.8395 0012775 282.6653  77.3145 15.04277857576531
SL-14 R/B               
1 19574U 88093B   17279.45119394  .00000123  00000-0  11961-4 0  9994
2 19574  82.5339  41.0372 0023131 108.6324 320.6609 14.83236370565941
SL-16 R/B               
1 19650U 88102B   17279.07777863  .00000175  00000-0  11326-3 0  9990
2 19650  70.9988 141.9260 0014021   5.1155 355.0108 14.15765016491688
INTERCOSMOS 24          
1 20261U 89080A   17278.67267612  .00000374  00000-0  10869-3 0  9999
2 20261  82.5907 298.3573 1203617 201.9077 152.6118 12.55911921280243
SL-14 R/B               
1 20262U 89080C   17279.45997468  .00000087  00000-0  21728-4 0  9994
2 20262  82.5966 344.8394 1237397   2.9583 357.8003 12.48873410275608
DELTA 1 R/B             
1 20323U 89089B   17279.42900311  .00000085  00000-0  31076-4 0  9994
2 20323  97.1156 207.7704 0073392  90.6058 270.3549 14.48218098470826
DELTA 2 R/B(1)          
1 20453U 90008B   17279.45256006  .00002427  00000-0  14060-3 0  9994
2 20453  35.6252 296.4447 0287714  13.7057 347.1274 14.83592033464737
COSMOS 2058             
1 20465U 90010A   17279.20292392  .00000383  00000-0  30509-4 0  9997
2 20465  82.4889 141.1287 0014144 282.6772  77.2869 14.97586779501952
SL-14 R/B               
1 20466U 90010B   17279.42689383  .00000089  00000-0  84288-5 0  9999
2 20466  82.5005 268.5153 0019887 337.3494  22.6840 14.81296776493960
SL-14 R/B               
1 20511U 90018B   17279.47540382  .00000090  00000-0  87406-5 0  9995
2 20511  82.5252 210.4665 0018990 106.6760  12.3667 14.79954934488529
HST                     
1 20580U 90037B   17278.68799351  .00000856  00000-0  41810-4 0  9994
2 20580  28.4706 357.3056 0002474 284.0996 209.1894 15.08875483306908
SL-16 R/B               
1 20625U 90046B   17279.43716085 -.00000122  00000-0 -38663-4 0  9991
2 20625  70.9983 275.6466 0016669 294.7532  65.1855 14.14624781413566
COSMOS 2084             
1 20663U 90055A   17279.37866610  .00000375  00000-0  48784-4 0  9999
2 20663  62.7919 216.9861 0138798 100.9283 260.7463 14.91675759476396
SL-6 R/B(2)             
1 20666U 90055D   17279.14656443  .00000311  00000-0  44395-4 0  9992
2 20666  62.7834 136.2740 0123882 120.2711 241.0711 14.92006658477738
SL-8 R/B                
1 20775U 90078B   17279.21365426  .00003975  00000-0  19783-3 0  9995
2 20775  82.9278 317.1642 0586126   0.2756 359.8639 14.31230869364644
SL-8 R/B                
1 21088U 91006B   17279.45671567  .00000133  00000-0  11915-3 0  9999
2 21088  82.9394 297.5191 0022740  12.5660  98.4329 13.77069844340916
OKEAN-3                 
1 21397U 91039A   17279.41513001  .00000492  00000-0  45310-4 0  9997
2 21397  82.5243  32.7500 0016946 221.6154 138.3777 14.92552790426374
COSMOS 2151             
1 21422U 91042A   17279.20476203  .00000298  00000-0  26943-4 0  9994
2 21422  82.4998 140.8145 0012815 286.0761  73.9047 14.91871429425055
SL-14 R/B               
1 21423U 91042B   17279.43607073  .00000124  00000-0  13511-4 0  9996
2 21423  82.4956 217.4470 0016191 244.1159 115.8386 14.79707799419036
ERS-1                   
1 21574U 91050A   17279.41718272  .00000092  00000-0  44950-4 0  9999
2 21574  98.4700 224.8617 0032822 345.0202  15.0009 14.37612057373567
ARIANE 40 R/B           
1 21610U 91050F   17279.28456528  .00000058  00000-0  32220-4 0  9997
2 21610  98.5930 336.4542 0002707 352.2491  49.8001 14.40811261376113
INTERCOSMOS 25          
1 21819U 91086A   17279.41583495  .00001213  00000-0  23874-3 0  9994
2 21819  82.5745 356.1748 1522082 210.1786 140.2437 12.04645380125678
SL-14 R/B               
1 21820U 91086B   17278.85184287  .00000093  00000-0  12218-4 0  9995
2 21820  82.5619  53.2001 1577501  43.8001 327.7836 11.93336595119988
SL-8 R/B                
1 21876U 92008B   17279.47656852  .00000016  00000-0  11580-6 0  9990
2 21876  82.9295  34.4911 0036119  84.0812 344.9666 13.75607882286681
SL-8 R/B                
1 21938U 92020B   17278.93636910 -.00000070  00000-0 -88831-4 0  9999
2 21938  82.9261 278.2344 0027941 241.8703 181.5094 13.75254588278217
SL-16 R/B               
1 22220U 92076B   17279.42620712 -.00000039  00000-0  44555-5 0  9993
2 22220  71.0009 185.0961 0010565 106.0107  20.5348 14.16422789286528
SL-16 R/B               
1 22285U 92093B   17279.43337893  .00000061  00000-0  56098-4 0  9997
2 22285  71.0225 338.9162 0005948 301.1202  58.9337 14.15011211278273
COSMOS 2228             
1 22286U 92094A   17279.43030191  .00000178  00000-0  16587-4 0  9998
2 22286  82.5176 269.2057 0022811 110.9194 249.4468 14.87850087339034
SL-16 R/B               
1 22566U 93016B   17279.33926869 -.00000252  00000-0 -10575-3 0  9994
2 22566  71.0083 193.6084 0012085 314.9613  45.0529 14.14952128266990
COSMOS 2242             
1 22626U 93024A   17279.45045245  .00000293  00000-0  29302-4 0  9995
2 22626  82.5194 296.9233 0020593 110.1542 250.1894 14.87712154322697
SL-16 R/B               
1 22803U 93059B   17279.42664987 -.00000075  00000-0 -13470-4 0  9996
2 22803  70.9929  15.0294 0018722 222.3660 137.6019 14.16782352244034
ARIANE 40 R/B           
1 22830U 93061H   17279.13371874 -.00000032  00000-0  53629-5 0  9990
2 22830  98.8807 297.0555 0010268 328.9596  31.0978 14.31412023254111
COSMOS 2278             
1 23087U 94023A   17279.21778190 -.00000284  00000-0 -12521-3 0  9999
2 23087  71.0513 126.9232 0007408  31.0798 329.0761 14.13750731210183
SL-16 R/B               
1 23088U 94023B   17279.42858616 -.00000333  00000-0 -14822-3 0  9996
2 23088  71.0007  48.5746 0005727 282.8800  77.1682 14.14658451211274
SL-16 R/B               
1 23343U 94074B   17279.19228581  .00000030  00000-0  11836-4 0  9997
2 23343  98.1423 317.3169 0008225  79.8080 324.2654 14.76711524233218
SL-16 R/B               
1 23405U 94077B   17278.82487440 -.00000292  00000-0 -12558-3 0  9992
2 23405  70.9837 342.7847 0002715 209.8655 150.2313 14.15200497180912
ERS-2                   
1 23560U 95021A   17279.16066802  .00002185  00000-0  10232-3 0  9995
2 23560  98.5592 286.4792 0002331 299.4486  60.6514 15.21062219192255
ARIANE 40+ R/B          
1 23561U 95021B   17279.49088434  .00000066  00000-0  37390-4 0  9998
2 23561  98.7969 283.2711 0005933 294.1852 219.0342 14.37835057177247
SL-16 R/B               
1 23705U 95058B   17279.21803849 -.00000096  00000-0 -24812-4 0  9993
2 23705  71.0211 156.0876 0010891 136.3357 223.8629 14.15099014132890
SL-16 R/B               
1 24298U 96051B   17279.33527500 -.00000108  00000-0 -32236-4 0  9998
2 24298  70.8489 187.8763 0014436   7.6424 352.4913 14.12488908 87517
ORBVIEW 2 (SEASTAR)     
1 24883U 97037A   17278.89672659  .00000082  00000-0  45524-4 0  9992
2 24883  98.5491  26.1221 0003284 125.7081 234.4409 14.33413027 67511
SL-16 R/B               
1 25400U 98043G   17279.47346213 -.00000002  00000-0  17280-4 0  9996
2 25400  98.4993 224.1949 0009403 336.9024  23.1732 14.25419447   929
SL-16 R/B               
1 25407U 98045B   17279.14904940  .00000150  00000-0  10073-3 0  9991
2 25407  71.0120 168.2502 0006751  21.6042 338.5364 14.15769580991882
ISS (ZARYA)             
1 25544U 98067A   17279.53063657  .00004775  00000-0  79458-4 0  9991
2 25544  51.6414 203.2653 0004261 351.5882 347.9193 15.54084186 79069
SL-8 R/B                
1 25723U 99022C   17279.40332141  .00011158  00000-0  16426-3 0  9993
2 25723  48.4151 293.7930 0009445 215.3568 144.6752 15.55804689 23802
CZ-4B R/B               
1 25732U 99025C   17279.49403137 -.00000004  00000-0  20479-4 0  9992
2 25732  98.9957 282.6125 0038137 133.5784 340.0989 14.17637772952405
OKEAN-O                 
1 25860U 99039A   17279.41881478  .00000084  00000-0  19660-4 0  9996
2 25860  98.1970 265.8780 0001740 102.7711 257.3693 14.76502447980242
SL-16 R/B               
1 25861U 99039B   17279.44814755  .00000087  00000-0  19242-4 0  9993
2 25861  98.1189 251.5900 0017072  84.0249  29.7092 14.78435191982210
TERRA                   
1 25994U 99068A   17288.44535476  .00000168  00000-0  37297-4 0  9992
2 25994  98.1989   1.7124 0000757  72.1783 288.0110 14.57123886948182
ENVISAT                 
1 27386U 02009A   17278.88927285 -.00000006  00000-0  11663-4 0  9999
2 27386  98.2201 319.4795 0001217  84.5828 275.5489 14.37904475816980
IDEFIX & ARIANE 42P R/B 
1 27422U 02021B   17279.47033839 -.00000021  00000-0  76521-5 0  9995
2 27422  98.2364 273.6293 0011038 266.9386  93.0534 14.29257188802579
AQUA                    
1 27424U 02022A   17288.46445486  .00000229  00000-0  50842-4 0  9998
2 27424  98.2101 227.9996 0001816  80.9101 279.2816 14.57114340821793
CZ-4B R/B               
1 27432U 02024C   17279.48251188 -.00000014  00000-0  15856-4 0  9994
2 27432  99.0014 253.7571 0051499  77.7596  29.4054 14.14051247794522
MIDORI II (ADEOS-II)    
1 27597U 02056A   17279.44498592  .00000075  00000-0  47796-4 0  9993
2 27597  98.3831 244.3539 0001684  47.9544 312.1781 14.27308412771297
H-2A R/B                
1 27601U 02056E   17279.30304215  .00000070  00000-0  41092-4 0  9990
2 27601  98.3655 343.1980 0071418 326.7551  74.3861 14.31800809773710
